NORAD_CAT_ID,OBJECT_NAME,OBJECT_TYPE,EPOCH,MEAN_MOTION,ECCENTRICITY,INCLINATION,RA_OF_ASC_NODE,ARG_OF_PERICENTER,MEAN_ANOMALY,BSTAR,MEAN_MOTION_DOT,MEAN_MOTION_DDOT,TLE_LINE0,TLE_LINE1,TLE_LINE2,SEMIMAJOR_AXIS,PERIOD,APOGEE,PERIGEE,DECAYED
52640.0,STARLINK-3977,PAYLOAD,2022-08-31 14:00:01,15.08845942,0.0002029,53.214,272.6759,49.825,58.4875,-5.8866e-05,-1.225e-05,0.0,0 STARLINK-3977,1 52640U 22052AU  22243.58334491 -.00001225  00000-0 -58866-4 0  9997,2 52640  53.2140 272.6759 0002029  49.8250  58.4875 15.08845942  1300,6917.861999999999,95.437,541.131,538.3240000000002,0.0
52640.0,STARLINK-3977,PAYLOAD,2022-08-31 22:00:00,15.08805725,0.0001792,53.2144,271.1775,54.427,65.4975,0.0023842,0.00037825,0.0,0 STARLINK-3977,1 52640U 22052AU  22243.91667824  .00037825  00000-0  23842-2 0  9990,2 52640  53.2144 271.1775 0001792  54.4270  65.4975 15.08805725  1300,6917.985,95.44,541.09,538.61,0.0
52640.0,STARLINK-3977,PAYLOAD,2022-09-01 04:00:01,15.08844029,0.0001861,53.2146,270.0556,55.6747,342.9825,-0.0011131,-0.00017962,0.0,0 STARLINK-3977,1 52640U 22052AU  22244.16668981 -.00017962  00000-0 -11131-2 0  9993,2 52640  53.2146 270.0556 0001861  55.6747 342.9825 15.08844029 17434,6917.868,95.437,541.02,538.446,0.0
52640.0,STARLINK-3977,PAYLOAD,2022-09-01 14:00:01,15.08822639,0.0002,53.2143,268.1861,49.0827,94.0596,0.0014145999999999,0.00022287,0.0,0 STARLINK-3977,1 52640U 22052AU  22244.58335648  .00022287  00000-0  14146-2 0  9993,2 52640  53.2143 268.1861 0002000  49.0827  94.0596 15.08822639  1302,6917.933000000001,95.439,541.182,538.415,0.0
52640.0,STARLINK-3977,PAYLOAD,2022-09-01 22:00:00,15.08813947,0.0001813,53.2146,266.688,55.133,99.5402,0.0023926999999999,0.0003796999999999,0.0,0 STARLINK-3977,1 52640U 22052AU  22244.91667824  .00037970  00000-0  23927-2 0  9996,2 52640  53.2146 266.6880 0001813  55.1330  99.5402 15.08813947  1305,6917.96,95.439,541.0790000000002,538.571,0.0
52640.0,STARLINK-3977,PAYLOAD,2022-09-02 04:00:00,15.08853639,0.0001879,53.2148,265.5663,55.9576,17.393,-0.001581,-0.00025371,0.0,0 STARLINK-3977,1 52640U 22052AU  22245.16667824 -.00025371  00000-0 -15810-2 0  9990,2 52640  53.2148 265.5663 0001879  55.9576  17.3930 15.08853639 17589,6917.839,95.437,541.004,538.404,0.0
52640.0,STARLINK-3977,PAYLOAD,2022-09-02 14:00:01,15.08835931,0.0001998,53.2144,263.6967,50.2914,127.557,0.00071103,0.00011045,0.0,0 STARLINK-3977,1 52640U 22052AU  22245.58334491  .00011045  00000-0  71103-3 0  9996,2 52640  53.2144 263.6967 0001998  50.2914 127.5570 15.08835931  1309,6917.893,95.438,541.14,538.376,0.0
52640.0,STARLINK-3977,PAYLOAD,2022-09-02 20:00:01,15.08830552,0.0001833,53.2146,262.5731,55.7571,40.7926,0.00089505,0.00013982,0.0,0 STARLINK-3977,1 52640U 22052AU  22245.83334491  .00013982  00000-0  89505-3 0  9991,2 52640  53.2146 262.5731 0001833  55.7571  40.7926 15.08830552 17688,6917.909000000002,95.438,541.0419999999998,538.506,0.0
52640.0,STARLINK-3977,PAYLOAD,2022-09-02 22:00:01,15.08821421,0.0001823,53.2144,262.1986,56.6296,132.8847,0.0024841,0.00039448,0.0,0 STARLINK-3977,1 52640U 22052AU  22245.91668981  .00039448  00000-0  24841-2 0  9990,2 52640  53.2144 262.1986 0001823  56.6296 132.8847 15.08821421  1309,6917.937,95.439,541.063,538.5409999999998,0.0
52640.0,STARLINK-3977,PAYLOAD,2022-09-03 14:00:01,15.08849099,0.0001993,53.214,259.2075,51.8998,160.7436,0.00012853,1.758e-05,0.0,0 STARLINK-3977,1 52640U 22052AU  22246.58334491  .00001758  00000-0  12853-3 0  9994,2 52640  53.2140 259.2075 0001993  51.8998 160.7436 15.08849099  1300,6917.853,95.437,541.096,538.339,0.0
52640.0,STARLINK-3977,PAYLOAD,2022-09-03 22:00:00,15.08840313,0.000181,53.2139,257.7095,57.7754,166.4804,-0.0002096,-3.622e-05,0.0,0 STARLINK-3977,1 52640U 22052AU  22246.91667824 -.00003622  00000-0 -20960-3 0  9992,2 52640  53.2139 257.7095 0001810  57.7754 166.4804 15.08840313  1308,6917.879,95.438,540.997,538.492,0.0
52640.0,STARLINK-3977,PAYLOAD,2022-09-04 04:00:00,15.08844405,0.0001841999999999,53.214,256.5881,56.2745,86.6427,-0.0017337,-0.00027778,0.0,0 STARLINK-3977,1 52640U 22052AU  22247.16667824 -.00027778  00000-0 -17337-2 0  9991,2 52640  53.2140 256.5881 0001842  56.2745  86.6427 15.08844405 17889,6917.8669999999975,95.437,541.006,538.4580000000002,0.0
52640.0,STARLINK-3977,PAYLOAD,2022-09-04 14:00:01,15.08837933,0.0001931,53.2134,254.7183,51.3172,196.1422,-0.0005254,-8.640000000000001e-05,0.0,0 STARLINK-3977,1 52640U 22052AU  22247.58335648 -.00008640  00000-0 -52540-3 0  9996,2 52640  53.2134 254.7183 0001931  51.3172 196.1422 15.08837933  1306,6917.887,95.438,541.0880000000002,538.4159999999998,0.0
52640.0,STARLINK-3977,PAYLOAD,2022-09-04 16:00:00,15.08852679,0.0001898,53.2134,254.3437,52.7359,287.5584,-0.0019817,-0.000317,0.0,0 STARLINK-3977,1 52640U 22052AU  22247.66667824 -.00031700  00000-0 -19817-2 0  9991,2 52640  53.2134 254.3437 0001898  52.7359 287.5584 15.08852679 17965,6917.842,95.437,541.02,538.394,0.0
52640.0,STARLINK-3977,PAYLOAD,2022-09-04 20:00:01,15.08821825,0.0001804,53.2135,253.5947,56.2588,109.8428,0.002081,0.0003297,0.0,0 STARLINK-3977,1 52640U 22052AU  22247.83334491  .00032970  00000-0  20810-2 0  9994,2 52640  53.2135 253.5947 0001804  56.2588 109.8428 15.08821825  1306,6917.936,95.439,541.049,538.553,0.0
52640.0,STARLINK-3977,PAYLOAD,2022-09-05 04:00:00,15.08861788,0.0001909,53.2135,252.0991,56.8349,120.8541,-0.001371,-0.00022055,0.0,0 STARLINK-3977,1 52640U 22052AU  22248.16667824 -.00022055  00000-0 -13710-2 0  9996,2 52640  53.2135 252.0991 0001909  56.8349 120.8541 15.08861788 18035,6917.814,95.436,540.999,538.3580000000002,0.0
52640.0,STARLINK-3977,PAYLOAD,2022-09-05 14:00:01,15.08873638,0.0001931,53.213,250.229,51.0486,231.145,-0.0036742,-0.00058345,0.0,0 STARLINK-3977,1 52640U 22052AU  22248.58334491 -.00058345  00000-0 -36742-2 0  9994,2 52640  53.2130 250.2290 0001931  51.0486 231.1450 15.08873638  1300,6917.778,95.435,540.9780000000002,538.307,0.0
52640.0,STARLINK-3977,PAYLOAD,2022-09-05 22:00:00,15.08811115,0.0001796,53.213,248.7309,56.3027,237.5088,0.0028419,0.00045196,0.0,0 STARLINK-3977,1 52640U 22052AU  22248.91667824  .00045196  00000-0  28419-2 0  9990,2 52640  53.2130 248.7309 0001796  56.3027 237.5088 15.08811115  1300,6917.969,95.439,541.076,538.591,0.0
52640.0,STARLINK-3977,PAYLOAD,2022-09-06 04:00:00,15.08860555,0.0001871,53.2132,247.6098,54.0625,158.4284,-0.0041536,-0.00065827,0.0,0 STARLINK-3977,1 52640U 22052AU  22249.16667824 -.00065827  00000-0 -41536-2 0  9998,2 52640  53.2132 247.6098 0001871  54.0625 158.4284 15.08860555 18183,6917.818,95.436,540.977,538.388,0.0
52640.0,STARLINK-3977,PAYLOAD,2022-09-06 14:00:01,15.08829633,0.0001893,53.2129,245.7395,48.168,268.8007,-0.001309,-0.00021055,0.0,0 STARLINK-3977,1 52640U 22052AU  22249.58334491 -.00021055  00000-0 -13090-2 0  9994,2 52640  53.2129 245.7395 0001893  48.1680 268.8007 15.08829633  1304,6917.9119999999975,95.438,541.087,538.4680000000002,0.0
52640.0,STARLINK-3977,PAYLOAD,2022-09-06 22:00:00,15.08801247,0.0001813,53.2131,244.2415,54.9812,273.5665,0.002902,0.00046151,0.0,0 STARLINK-3977,1 52640U 22052AU  22249.91667824  .00046151  00000-0  29020-2 0  9992,2 52640  53.2131 244.2415 0001813  54.9812 273.5665 15.08801247  1302,6917.999,95.44,541.118,538.61,0.0
52640.0,STARLINK-3977,PAYLOAD,2022-09-07 04:00:00,15.08838672,0.0001929,53.2132,243.1205,52.7254,194.4957,-0.001297,-0.0002086999999999,0.0,0 STARLINK-3977,1 52640U 22052AU  22250.16667824 -.00020870  00000-0 -12970-2 0  9999,2 52640  53.2132 243.1205 0001929  52.7254 194.4957 15.08838672 18330,6917.884,95.438,541.0840000000002,538.415,0.0
52640.0,STARLINK-3977,PAYLOAD,2022-09-07 14:00:01,15.0884844,0.0001986,53.2131,241.25,49.324,302.3713,-0.0015968,-0.00025618,0.0,0 STARLINK-3977,1 52640U 22052AU  22250.58334491 -.00025618  00000-0 -15968-2 0  9991,2 52640  53.2131 241.2500 0001986  49.3240 302.3713 15.08848440  1309,6917.855,95.437,541.0930000000002,538.346,0.0
52640.0,STARLINK-3977,PAYLOAD,2022-09-07 20:00:01,15.08814851,0.0001881,53.2134,240.1263,54.5128,215.9516,0.0030006,0.00047758,0.0,0 STARLINK-3977,1 52640U 22052AU  22250.83335648  .00047758  00000-0  30006-2 0  9991,2 52640  53.2134 240.1263 0001881  54.5128 215.9516 15.08814851 18434,6917.956999999999,95.439,541.124,538.521,0.0
52640.0,STARLINK-3977,PAYLOAD,2022-09-07 22:00:00,15.08822207,0.0001899999999999,53.2134,239.7521,56.16,307.1353,0.0027803,0.00044217,0.0,0 STARLINK-3977,1 52640U 22052AU  22250.91667824  .00044217  00000-0  27803-2 0  9992,2 52640  53.2134 239.7521 0001900  56.1600 307.1353 15.08822207  1305,6917.935,95.439,541.114,538.485,0.0
52640.0,STARLINK-3977,PAYLOAD,2022-09-08 14:00:01,15.08879896,0.0001999,53.2134,236.7602,50.1748,336.3125,-0.0043721,-0.00069279,0.0,0 STARLINK-3977,1 52640U 22052AU  22251.58334491 -.00069279  00000-0 -43721-2 0  9991,2 52640  53.2134 236.7602 0001999  50.1748 336.3125 15.08879896  1304,6917.7580000000025,95.435,541.006,538.241,0.0
52640.0,STARLINK-3977,PAYLOAD,2022-09-08 20:00:01,15.08815796,0.0001843,53.2137,235.6366,55.0741,250.1419,0.0024638999999999,0.00039117,0.0,0 STARLINK-3977,1 52640U 22052AU  22251.83334491  .00039117  00000-0  24639-2 0  9992,2 52640  53.2137 235.6366 0001843  55.0741 250.1419 15.08815796 18583,6917.954000000002,95.439,541.094,538.544,0.0
52640.0,STARLINK-3977,PAYLOAD,2022-09-08 22:00:00,15.08819304,0.0001841,53.2138,235.2624,55.9009,342.2091,0.0026283,0.00041766,0.0,0 STARLINK-3977,1 52640U 22052AU  22251.91667824  .00041766  00000-0  26283-2 0  9990,2 52640  53.2138 235.2624 0001841  55.9009 342.2091 15.08819304  1301,6917.944,95.439,541.082,538.535,0.0
52640.0,STARLINK-3977,PAYLOAD,2022-09-09 14:00:01,15.08867654,0.0001927,53.2138,232.2704,50.8098,10.4798,-0.0025851999999999,-0.00041228,0.0,0 STARLINK-3977,1 52640U 22052AU  22252.58334491 -.00041228  00000-0 -25852-2 0  9991,2 52640  53.2138 232.2704 0001927  50.8098  10.4798 15.08867654  1303,6917.795999999999,95.436,540.994,538.328,0.0
